214P/LINEAR,e,15.1842,348.2553,190.2613,3.616912,0.1432838,0.48584249,269.3925,01/02.0/2021,2000,g 13.0,4.0
# From MPEC 2020-SI8
215P/NEAT,e,10.5814,56.6833,262.1158,4.327511,0.1094830,0.16688778,44.9450,01/02.0/2021,2000,g 11.0,4.0
# From MPC100284
216P/LINEAR,e,9.0549,359.8122,151.3497,3.869307,0.1294954,0.44598848,217.3536,01/02.0/2021,2000,g 13.0,4.0
# From MPC108598
217P/LINEAR,e,12.8645,125.4791,246.8418,3.951184,0.1254912,0.68853051,158.7260,01/02.0/2021,2000,g 12.0,4.0
# From MPEC 2020-K19
218P/LINEAR,e,2.7256,175.9717,59.7908,3.094474,0.1810606,0.62194167,16.3352,01/02.0/2021,2000,g 16.0,4.0
# From MPC100284
219P/LINEAR,e,11.5303,230.9829,107.3922,3.650307,0.1413221,0.35377612,199.2637,01/02.0/2021,2000,g 11.0,4.0
# From MPEC 2020-W26
220P/McNaught,e,8.1288,150.1024,180.5301,3.115998,0.1791878,0.50181238,4.0090,01/02.0/2021,2000,g 15.0,4.0
# From MPC 93589
221P/LINEAR,e,11.4263,229.7104,40.0761,3.456972,0.1533417,0.49278775,306.3302,01/02.0/2021,2000,g 14.5,4.0
# From MPC 92277
222P/LINEAR,e,5.0961,6.7862,346.2373,2.899406,0.1996368,0.71452337,115.1552,01/02.0/2021,2000,g 20.0,4.0
# From MPEC 2020-HN5
223P/Skiff,e,27.0207,346.7715,37.8182,4.159204,0.1161954,0.41582930,81.9904,01/02.0/2021,2000,g 12.0,4.0
# From MPC 75727
224P/LINEAR-NEAT,e,13.3065,40.2646,16.7436,3.441024,0.1544090,0.40765656,261.7947,01/02.0/2021,2000,g 15.5,4.0
# From MPC 75727
225P/LINEAR,e,21.3558,14.1879,3.8656,3.650572,0.1413067,0.63786547,225.9831,01/02.0/2021,2000,g 18.0,4.0
# From MPC106349
226P/Pigott-LINEAR-Kowalski,e,44.0150,54.0026,341.0423,3.767649,0.1347716,0.52834183,213.1215,01/02.0/2021,2000,g 12.5,4.0
# From MPC102956
227P/Catalina-LINEAR,e,6.5078,48.9732,90.4954,3.563377,0.1465249,0.50855713,188.4399,01/02.0/2021,2000,g 16.5,2.0
# From MPEC 2020-L06
228P/LINEAR,e,7.9109,30.9806,115.2380,4.172209,0.1156525,0.17654279,34.4358,01/02.0/2021,2000,g 14.5,2.0
# From MPC106349
229P/Gibbs,e,26.0893,157.9042,223.9661,3.930538,0.1264812,0.37681782,167.2038,01/02.0/2021,2000,g 13.0,4.0
# From MPC110497
230P/LINEAR,e,15.4966,107.0257,313.4559,3.453804,0.1535527,0.54681640,292.2872,01/02.0/2021,2000,g 13.0,4.0
# From MPEC 2020-K19
231P/LINEAR-NEAT,e,12.3360,133.0143,43.1068,4.022459,0.1221706,0.24770850,69.1789,01/02.0/2021,2000,g 14.5,2.0
# From MPC112394
232P/Hill,e,14.6326,56.0171,53.4434,4.480945,0.1039082,0.33418974,66.1880,01/02.0/2021,2000,g 11.5,4.0
# From MPC 92986
233P/La Sagra,e,11.2835,74.9259,27.0545,3.030920,0.1867852,0.41184459,17.2474,01/02.0/2021,2000,g 15.0,4.0
# From MPC110497
234P/LINEAR,e,11.5283,179.5636,357.3048,3.801599,0.1329703,0.25443984,174.7062,01/02.0/2021,2000,g 12.0,4.0
# From MPC110497
235P/LINEAR,e,8.9074,203.6299,333.4103,3.973923,0.1244156,0.32132927,127.1846,01/02.0/2021,2000,g 12.0,4.0
# From MPC107688
236P/LINEAR,e,16.3351,245.6381,119.2108,3.730690,0.1367793,0.50870608,155.6893,01/02.0/2021,2000,g 14.0,4.0
# From MPC109593
237P/LINEAR,e,14.0182,245.4052,25.1977,3.512482,0.1497211,0.43461278,230.8966,01/02.0/2021,2000,g 14.5,2.0
# From MPC107688
238P/Read,e,1.2644,51.6417,324.6199,3.164402,0.1750921,0.25228546,268.8211,01/02.0/2021,2000,g 14.5,4.0
# From MPC112394
239P/LINEAR,e,11.2986,255.9144,220.4526,4.471239,0.1042467,0.63029915,75.3896,01/02.0/2021,2000,g 17.5,2.0
# From MPC109593
240P/NEAT,e,23.5075,74.9180,351.9791,3.867443,0.1295890,0.44880149,124.7287,01/02.0/2021,2000,g 11.0,4.0
# From MPEC 2020-W26
241P/LINEAR,e,21.1068,305.4841,111.4003,4.917964,0.0903704,0.61006476,341.4978,01/02.0/2021,2000,g 13.5,4.0
# From MPC 81861
242P/Spahr,e,32.4858,180.4435,246.1300,5.480086,0.0768286,0.27801480,247.6479,01/02.0/2021,2000,g  8.0,4.0
# From MPC111774
243P/NEAT,e,7.6408,87.6490,283.5238,3.831355,0.1314242,0.35994922,112.9921,01/02.0/2021,2000,g 12.5,4.0
# From MPEC 2020-W26
244P/Scotti,e,2.2593,353.9900,92.9247,4.894951,0.0910084,0.19862031,297.8253,01/02.0/2021,2000,g  9.0,4.0
# From MPEC 2020-K19
245P/WISE,e,21.1975,316.6475,316.8496,4.043543,0.1212163,0.45741857,128.2763,01/02.0/2021,2000,g 14.0,4.0
# From MPEC 2020-W26
246P/NEAT,e,15.9873,78.7473,176.2909,4.015783,0.1224754,0.28683171,353.6579,01/02.0/2021,2000,g 10.5,4.0
# From MPC112394
247P/LINEAR,e,13.6534,54.0093,47.4862,3.969963,0.1246018,0.62430467,94.9831,01/02.0/2021,2000,g 16.5,2.0
# From MPC 75730
248P/Gibbs,e,6.3475,207.7577,209.8871,5.991329,0.0672077,0.63805904,244.4753,01/02.0/2021,2000,g 14.0,4.0
# From MPEC 2020-W26
249P/LINEAR,e,8.3963,239.1750,65.6117,2.762143,0.2147013,0.82013333,40.0425,01/02.0/2021,2000,g 15.5,4.0
# From MPC110497
250P/Larson,e,13.2000,73.5881,46.0817,3.758402,0.1352693,0.40224783,144.2743,01/02.0/2021,2000,g 14.5,4.0
# From MPC104795
251P/LINEAR,e,23.3993,219.3918,31.2760,3.510333,0.1498585,0.50529491,189.6603,01/02.0/2021,2000,g 16.5,2.0
# From MPC102956
252P/LINEAR,e,10.4095,190.9495,343.3047,3.050073,0.1850285,0.67199188,324.8553,01/02.0/2021,2000,g 17.5,4.0
# From MPC112394
253P/PANSTARRS,e,4.9430,146.8794,230.6331,3.467384,0.1526515,0.41364209,148.0699,01/02.0/2021,2000,g 14.5,4.0
# From MPEC 2020-W26
254P/McNaught,e,32.5728,129.1749,219.4918,4.612366,0.0994989,0.31986957,9.3809,01/02.0/2021,2000,g 11.0,4.0
# From NK 2214
255P/Levy,e,13.6268,276.2430,185.6000,2.940591,0.1954574,0.71516627,240.4281,01/02.0/2021,2000,g  9.0,4.0
# From MPC 84027
256P/LINEAR,e,27.6315,81.3517,124.2837,4.636900,0.0987103,0.41821116,281.0907,01/02.0/2021,2000,g 14.0,2.0
# From MPEC 2020-W26
257P/Catalina,e,20.2232,207.7346,117.6470,3.762260,0.1350613,0.43054278,15.2991,01/02.0/2021,2000,g 11.5,4.0
# From MPC 79655
258P/PANSTARRS,e,6.7460,126.2484,26.0742,4.400464,0.1067717,0.20884477,20.9967,01/02.0/2021,2000,g 13.0,4.0
# From MPC106349
259P/Garradd,e,15.8891,51.4546,257.6052,2.730539,0.2184396,0.33853010,272.1086,01/02.0/2021,2000,g 15.5,4.0
# From MPEC 2020-SI8
260P/McNaught,e,15.0547,349.3419,18.4057,3.622621,0.1429452,0.60901379,68.6096,01/02.0/2021,2000,g 13.5,4.0
# From MPEC 2019-TG9
261P/Larson,e,6.0759,291.1617,67.1405,3.489959,0.1511728,0.42312517,85.1370,01/02.0/2021,2000,g 14.0,4.0
# From MPC 82322
262P/McNaught-Russell,e,29.1928,217.8949,171.0041,6.875522,0.0546696,0.81536038,161.5214,01/02.0/2021,2000,g 13.5,4.0
# From MPC 89018
263P/Gibbs,e,11.5451,105.7924,34.4564,3.052560,0.1848025,0.59098447,219.6087,01/02.0/2021,2000,g  9.0,4.0
# From MPC114608
264P/Larsen,e,25.1313,220.7646,346.7247,3.897409,0.1280973,0.37471739,66.0952,01/02.0/2021,2000,g 13.0,4.0
# From MPC 79870
265P/LINEAR,e,14.3649,342.9272,33.4226,4.251644,0.1124265,0.64743600,355.7232,01/02.0/2021,2000,g 14.5,4.0
# From MPEC 2019-TG9
266P/Christensen,e,3.4261,4.9982,97.8285,3.534946,0.1482961,0.33944370,38.1949,01/02.0/2021,2000,g 12.5,4.0
# From MPC114608
267P/LONEOS,e,6.1380,228.6436,114.1145,3.212034,0.1712119,0.61415609,153.1095,01/02.0/2021,2000,g 19.5,4.0
# From MPC 92277
268P/Bernardi,e,16.1507,127.5901,359.9949,4.547464,0.1016366,0.47273034,211.2429,01/02.0/2021,2000,g 14.0,4.0
# From MPC104795
269P/Jedicke,e,7.0710,241.7046,225.9214,7.078917,0.0523304,0.43040036,119.6272,01/02.0/2021,2000,g 10.0,4.0
# From MPC 88332
270P/Gehrels,e,2.9185,222.9694,209.8707,6.667529,0.0572475,0.46715303,158.3580,01/02.0/2021,2000,g  8.0,4.0
# From MPC 92277
271P/van Houten-Lemmon,e,6.8682,9.3028,36.4276,7.045924,0.0526984,0.39376053,143.9887,01/02.0/2021,2000,g 11.0,4.0
# From MPC 81862
272P/NEAT,e,18.0762,109.4659,27.9614,4.455534,0.1047984,0.45422475,301.1768,01/02.0/2021,2000,g 16.0,2.0
# From MPC 82723
273P/Pons-Gambart,e,136.7847,320.4008,20.3179,31.77335,0.0055031,0.97407116,0.0000,12/17.6144/2012,2000,g 11.5,4.0
# From MPC 88332
274P/Tombaugh-Tenagra,e,15.8176,81.3380,38.4998,4.371808,0.1078233,0.43888013,310.2272,01/02.0/2021,2000,g 13.0,4.0
# From MPC 81862
275P/Hermann,e,21.2773,348.7574,174.0846,5.772134,0.0710722,0.71242673,208.5035,01/02.0/2021,2000,g 17.0,4.0
# From MPEC 2020-K19
276P/Vorobjov,e,14.8140,211.4169,199.8186,5.315030,0.0804351,0.26720386,243.8021,01/02.0/2021,2000,g 11.5,4.0
# From MPEC 2020-W26
277P/LINEAR,e,16.7789,276.3446,152.3166,3.852244,0.1303567,0.50561663,0.3689,01/02.0/2021,2000,g 14.0,4.0
# From MPEC 2020-W26
278P/McNaught,e,6.6849,15.4364,238.0957,3.695431,0.1387415,0.43524940,15.5298,01/02.0/2021,2000,g 14.0,4.0
# From MPC100285
279P/La Sagra,e,5.0522,346.2302,5.7705,3.574891,0.1458176,0.39829426,237.8537,01/02.0/2021,2000,g 14.0,4.0
# From MPC 89013
280P/Larsen,e,11.7752,131.3932,104.8016,4.529183,0.1022526,0.41781490,263.4268,01/02.0/2021,2000,g 12.5,4.0
# From MPC 83145
281P/MOSS,e,4.7197,87.1747,26.8054,4.870576,0.0916925,0.17170478,290.1394,01/02.0/2021,2000,g 11.0,4.0
# From MPC xxxxx
282P/,e,5.8108,9.2949,217.5806,4.243479,0.1127512,0.18908151,326.7046,01/02.0/2021,2000,g 13.5,2.0
# From MPEC 2013-M31
283P/Spacewatch,e,14.4542,161.1310,22.2600,4.139684,0.1170182,0.48497676,330.8580,01/02.0/2021,2000,g  9.0,4.0
# From MPEC 2020-K19
284P/McNaught,e,11.8594,144.2679,202.5719,3.678031,0.1397272,0.37607048,324.4976,01/02.0/2021,2000,g 13.0,4.0
# From MPC 85339
285P/LINEAR,e,25.0332,185.4945,178.4101,4.508570,0.1029546,0.61824879,283.7573,01/02.0/2021,2000,g 15.0,4.0
# From MPC 90771
286P/Christensen,e,17.0449,283.9619,24.8003,4.110036,0.1182866,0.42532400,301.3845,01/02.0/2021,2000,g 14.0,4.0
# From MPC 96868
287P/Christensen,e,16.3197,139.0437,188.8827,4.166586,0.1158867,0.27078857,254.1816,01/02.0/2021,2000,g 13.5,4.0
# From MPC xxxxx
288P/,e,3.2400,83.1889,280.6453,3.048425,0.1851786,0.20137580,281.2245,01/02.0/2021,2000,g 16.0,2.0
# From MPC118844
289P/Blanpain,e,5.8942,68.8869,9.8765,3.047412,0.1852710,0.68539785,70.0367,01/02.0/2021,2000,g  2.5,4.0
# From MPC 95214
290P/Jager,e,20.2519,302.6821,181.9777,6.193107,0.0639501,0.63352956,160.6000,01/02.0/2021,2000,g 10.5,4.0
# From MPC 89314
291P/NEAT,e,6.3155,238.1303,173.8831,4.517711,0.1026423,0.43585680,272.3137,01/02.0/2021,2000,g 13.0,4.0
# From MPC115887
292P/Li,e,24.2565,90.9905,319.4563,6.108613,0.0652815,0.58798323,165.0934,01/02.0/2021,2000,g 12.5,4.0
# From MPEC 2020-W26
